OBJECT_NAME,OBJECT_ID,EPOCH,MEAN_MOTION,ECCENTRICITY,INCLINATION,RA_OF_ASC_NODE,ARG_OF_PERICENTER,MEAN_ANOMALY,EPHEMERIS_TYPE,CLASSIFICATION_TYPE,NORAD_CAT_ID,ELEMENT_SET_NO,REV_AT_EPOCH,BSTAR,MEAN_MOTION_DOT,MEAN_MOTION_DDOT
S-NET C,2018-014K,2026-07-07T19:07:34.972320,15.16834866,.0008248,97.5371,93.7369,301.2587,58.7837,0,U,43189,999,46043,.14656E-3,.2816E-4,0
GOES 17,2018-022A,2026-07-08T03:00:33.473952,1.00271653,.0000587,0.9873,85.3752,63.9331,92.4208,0,U,43226,999,3063,0,-.168E-5,0
LKW-4,2018-025A,2026-07-07T22:46:32.825856,15.64042191,.0002975,97.6356,1.4774,207.4695,152.6406,0,U,43236,999,46327,.32741E-3,.3086E-3,0
ZHUHAI-1 OVS-02,2018-040B,2026-07-08T05:26:07.124640,15.25313116,.0004359,97.0387,205.2105,153.3000,206.8464,0,U,43440,999,45592,.17009E-3,.4218E-4,0
ZHUHAI-1 OHS-02,2018-040C,2026-07-08T04:47:26.352384,15.26196450,.0010627,97.0367,212.1458,146.5057,213.6856,0,U,43441,999,11748,.19149E-3,.4892E-4,0
GAOFEN-6,2018-048A,2026-07-08T05:10:39.476352,14.76378710,.0012107,98.0956,251.9011,101.3441,258.9129,0,U,43484,999,43649,.43451E-4,.25E-5,0
LUOJIA-1 01,2018-048B,2026-07-08T03:56:45.729024,14.87365121,.0010111,97.8091,267.0155,58.1874,302.0325,0,U,43485,999,43733,.15671E-3,.1363E-4,0
PAKTES 1A,2018-056A,2026-07-08T05:31:02.407872,14.99186129,.0020293,98.1291,346.6141,40.9283,319.3458,0,U,43529,999,43507,.11898E-3,.1388E-4,0
PRSS-1,2018-056B,2026-07-08T04:30:26.103168,14.82020487,.0001298,97.7807,256.4756,80.8920,279.2440,0,U,43530,999,43154,-.1976E-5,-.67E-6,0
HAIYANG-1C,2018-068A,2026-07-08T04:11:49.484256,14.34185242,.0011584,98.5179,261.1790,38.0925,322.1076,0,U,43609,999,41009,.96811E-6,-.41E-6,0
SSTL S1-4,2018-071A,2026-07-08T03:43:10.976160,14.96198495,.0002132,97.5003,59.8942,93.4819,266.6646,0,U,43618,999,42607,-.28391E-6,-.57E-6,0
HAIYANG-2B,2018-081A,2026-07-08T04:46:53.254272,13.79310030,.0000608,99.3291,197.6384,156.1011,204.0170,0,U,43655,999,38782,.25563E-3,.218E-5,0
CFOSAT,2018-083A,2026-07-08T03:26:27.119616,15.16507165,.0002051,97.3610,193.0575,78.9460,281.2004,0,U,43662,999,42561,.11547E-3,.2185E-4,0
TEN-KOH,2018-084G,2026-07-07T08:42:22.557312,15.03014927,.00102023,98.0746,21.5743,53.9044,306.3123,0,U,43677,999,41919,.16528274E-3,.216E-4,0
DIWATA-2B,2018-084H,2026-07-08T04:13:16.901184,15.00545127,.0013054,98.1217,26.3015,105.5968,254.6696,0,U,43678,999,41936,.13562E-3,.1647E-4,0
STARS-AO,2018-084J,2026-07-07T01:23:00.684384,15.17285299,.0003692,98.0487,43.2544,96.6046,263.5606,0,U,43679,999,42048,.21063303E-3,.412E-4,0
AUTCUBE 2,2018-084K,2026-07-08T00:51:36.220896,15.10235328,.0008297,98.0707,36.3163,342.0961,17.9973,0,U,43681,999,42007,.1223E-3,.1929E-4,0
METOP-C,2018-087A,2026-07-08T04:25:17.159232,14.21517735,.0002202,98.6633,248.4030,102.7632,257.3792,0,U,43689,999,39781,.48724E-4,.63E-6,0
ES'HAIL 2,2018-090A,2026-07-08T03:33:23.984064,1.00272740,.0002347,0.0127,310.3975,203.2868,211.5859,0,U,43700,999,2788,0,.159E-5,0
MOHAMMED VI-B,2018-095A,2026-07-08T04:14:44.196288,14.77077590,.0001682,97.9545,261.2124,97.9107,262.2295,0,U,43717,999,41128,.11361E-3,.751E-5,0
HYSIS,2018-096A,2026-07-08T04:32:45.464640,14.78660103,.0001838,97.9826,255.7721,86.9544,273.1878,0,U,43719,999,41052,.35347E-4,.207E-5,0
COSMOS 2530 (RODNIK-S 16),2018-097A,2026-07-08T03:28:51.466368,12.42881378,.0019302,82.5125,209.2737,354.5550,5.5317,0,U,43751,999,34489,-.5079E-3,-.61E-6,0
COSMOS 2531 (RODNIK-S 17),2018-097B,2026-07-08T04:00:11.395584,12.42912664,.0016922,82.5170,210.3258,14.2470,345.9083,0,U,43752,999,34491,-.56713E-3,-.69E-6,0
COSMOS 2532 (RODNIK-S 18),2018-097C,2026-07-08T04:40:58.039680,12.42910066,.0018348,82.5114,209.0846,15.9764,344.1890,0,U,43753,999,34488,-.52131E-3,-.62E-6,0
MINXSS-2,2018-099A,2026-07-08T04:05:05.542656,15.48435423,.000818,97.4522,266.0904,182.2893,177.8321,0,U,43758,999,41737,.53842E-3,.2857E-3,0
SIRION PATHFINDER-2,2018-099B,2026-07-07T22:13:24.189024,15.14739117,.0007741,97.4246,237.4912,218.2423,141.8261,0,U,43759,999,41576,.14747E-3,.2669E-4,0
AISTECHSAT 2,2018-099L,2026-07-08T02:02:06.156672,15.15666029,.0003978,97.4285,236.6625,206.8137,153.2890,0,U,43768,999,41544,.19228E-3,.3593E-4,0
FOX-1CLIFF (AO-95),2018-099N,2026-07-08T02:43:50.553120,15.27170557,.000694,97.4374,249.2874,270.2614,89.7830,0,U,43770,999,41641,.25961E-3,.6845E-4,0
RANGE-A,2018-099R,2026-07-08T01:41:21.454080,15.13568366,.0008527,97.3955,231.0391,274.3864,85.6393,0,U,43773,999,41565,.17085E-3,.3002E-4,0
