S-NET C                 
1 43189U 18014K   26188.79693255  .00002816  00000+0  14656-3 0  9991
2 43189  97.5371  93.7369 0008248 301.2587  58.7837 15.16834866460437
GOES 17                 
1 43226U 18022A   26189.12538743 -.00000168  00000+0  00000+0 0  9993
2 43226   0.9873  85.3752 0000587  63.9331  92.4208  1.00271653 30633
LKW-4                   
1 43236U 18025A   26188.94899104  .00030860  00000+0  32741-3 0  9999
2 43236  97.6356   1.4774 0002975 207.4695 152.6406 15.64042191463274
ZHUHAI-1 OVS-02         
1 43440U 18040B   26189.22647135  .00004218  00000+0  17009-3 0  9998
2 43440  97.0387 205.2105 0004359 153.3000 206.8464 15.25313116455922
ZHUHAI-1 OHS-02         
1 43441U 18040C   26189.19961056  .00004892  00000+0  19149-3 0  9991
2 43441  97.0367 212.1458 0010627 146.5057 213.6856 15.26196450117488
GAOFEN-6                
1 43484U 18048A   26189.21573468  .00000250  00000+0  43451-4 0  9993
2 43484  98.0956 251.9011 0012107 101.3441 258.9129 14.76378710436492
LUOJIA-1 01             
1 43485U 18048B   26189.16441816  .00001363  00000+0  15671-3 0  9997
2 43485  97.8091 267.0155 0010111  58.1874 302.0325 14.87365121437336
PAKTES 1A               
1 43529U 18056A   26189.22988898  .00001388  00000+0  11898-3 0  9992
2 43529  98.1291 346.6141 0020293  40.9283 319.3458 14.99186129435074
PRSS-1                  
1 43530U 18056B   26189.18780212 -.00000067  00000+0 -19760-5 0  9992
2 43530  97.7807 256.4756 0001298  80.8920 279.2440 14.82020487431548
HAIYANG-1C              
1 43609U 18068A   26189.17487829 -.00000041  00000+0  96811-6 0  9993
2 43609  98.5179 261.1790 0011584  38.0925 322.1076 14.34185242410094
SSTL S1-4               
1 43618U 18071A   26189.15498815 -.00000057  00000+0 -28391-6 0  9998
2 43618  97.5003  59.8942 0002132  93.4819 266.6646 14.96198495426078
HAIYANG-2B              
1 43655U 18081A   26189.19922748  .00000218  00000+0  25563-3 0  9993
2 43655  99.3291 197.6384 0000608 156.1011 204.0170 13.79310030387824
CFOSAT                  
1 43662U 18083A   26189.14336944  .00002185  00000+0  11547-3 0  9997
2 43662  97.3610 193.0575 0002051  78.9460 281.2004 15.16507165425613
TEN-KOH                 
1 43677U 18084G   26188.36276108  .00002160  00000+0  16528-3 0  9999
2 43677  98.0746  21.5743 0010202  53.9044 306.3123 15.03014927419199
DIWATA-2B               
1 43678U 18084H   26189.17589006  .00001647  00000+0  13562-3 0  9998
2 43678  98.1217  26.3015 0013054 105.5968 254.6696 15.00545127419363
STARS-AO                
1 43679U 18084J   26188.05764681  .00004120  00000+0  21063-3 0  9993
2 43679  98.0487  43.2544 0003692  96.6046 263.5606 15.17285299420485
AUTCUBE 2               
1 43681U 18084K   26189.03583589  .00001929  00000+0  12230-3 0  9991
2 43681  98.0707  36.3163 0008297 342.0961  17.9973 15.10235328420077
METOP-C                 
1 43689U 18087A   26189.18422638  .00000063  00000+0  48724-4 0  9991
2 43689  98.6633 248.4030 0002202 102.7632 257.3792 14.21517735397814
ES'HAIL 2               
1 43700U 18090A   26189.14819426  .00000159  00000+0  00000+0 0  9996
2 43700   0.0127 310.3975 0002347 203.2868 211.5859  1.00272740 27888
MOHAMMED VI-B           
1 43717U 18095A   26189.17690042  .00000751  00000+0  11361-3 0  9997
2 43717  97.9545 261.2124 0001682  97.9107 262.2295 14.77077590411282
HYSIS                   
1 43719U 18096A   26189.18941510  .00000207  00000+0  35347-4 0  9997
2 43719  97.9826 255.7721 0001838  86.9544 273.1878 14.78660103410526
COSMOS 2530 (RODNIK-S *)
1 43751U 18097A   26189.14504012 -.00000061  00000+0 -50790-3 0  9990
2 43751  82.5125 209.2737 0019302 354.5550   5.5317 12.42881378344890
COSMOS 2531 (RODNIK-S *)
1 43752U 18097B   26189.16679856 -.00000069  00000+0 -56713-3 0  9991
2 43752  82.5170 210.3258 0016922  14.2470 345.9083 12.42912664344915
COSMOS 2532 (RODNIK-S *)
1 43753U 18097C   26189.19511620 -.00000062  00000+0 -52131-3 0  9992
2 43753  82.5114 209.0846 0018348  15.9764 344.1890 12.42910066344887
MINXSS-2                
1 43758U 18099A   26189.17020304  .00028570  00000+0  53842-3 0  9993
2 43758  97.4522 266.0904 0008180 182.2893 177.8321 15.48435423417375
SIRION PATHFINDER-2     
1 43759U 18099B   26188.92597441  .00002669  00000+0  14747-3 0  9999
2 43759  97.4246 237.4912 0007741 218.2423 141.8261 15.14739117415766
AISTECHSAT 2            
1 43768U 18099L   26189.08479348  .00003593  00000+0  19228-3 0  9998
2 43768  97.4285 236.6625 0003978 206.8137 153.2890 15.15666029415446
FOX-1CLIFF (AO-95)      
1 43770U 18099N   26189.11377955  .00006845  00000+0  25961-3 0  9990
2 43770  97.4374 249.2874 0006940 270.2614  89.7830 15.27170557416415
RANGE-A                 
1 43773U 18099R   26189.07038720  .00003002  00000+0  17085-3 0  9992
2 43773  97.3955 231.0391 0008527 274.3864  85.6393 15.13568366415658
